HAWK-11A                
1 62382U 24247F   26068.51231358  .00009457  00000+0  34106-3 0  9991
2 62382  44.9941 114.3328 0005466 327.3713  32.6832 15.28849427 67741
STARLINK-34180          
1 64081U 25107T   26068.39087050  .00026062  00000+0  95283-3 0  9993
2 64081  42.9963 203.3296 0000261 129.6772 230.4103 15.27594644 46079
